OBJECT_NAME,OBJECT_ID,EPOCH,MEAN_MOTION,ECCENTRICITY,INCLINATION,RA_OF_ASC_NODE,ARG_OF_PERICENTER,MEAN_ANOMALY,EPHEMERIS_TYPE,CLASSIFICATION_TYPE,NORAD_CAT_ID,ELEMENT_SET_NO,REV_AT_EPOCH,BSTAR,MEAN_MOTION_DOT,MEAN_MOTION_DDOT
NEOSSAT,2013-009D,2024-07-11T12:21:16.467552,14.35197568,.0011012,98.4048,20.2397,183.8272,176.2831,0,U,39089,999,59549,.11121E-3,.275E-5,0
STRAND-1,2013-009E,2024-07-11T12:33:28.931328,14.36117474,.0008959,98.3814,21.1391,172.3372,187.7953,0,U,39090,999,59573,.1782E-3,.477E-5,0
BRITE-AUSTRIA,2013-009F,2024-07-11T12:05:40.952544,14.35836730,.0010295,98.3859,20.3929,180.6631,179.4543,0,U,39091,999,59575,.12227E-3,.312E-5,0
SBIRS GEO-2 (USA 241),2013-011A,2024-07-11T11:28:16.798944,1.00271439,.0001663,3.0261,47.6130,63.7711,312.5457,0,U,39120,999,4146,0,-.251E-5,0
EUTELSAT 117 WEST A,2013-012A,2024-07-11T12:48:43.524576,1.00271821,.0002797,0.0174,54.1959,62.3293,248.7712,0,U,39122,999,4135,0,-.5E-7,0
ANIK G1,2013-014A,2024-07-11T07:42:22.430880,1.00272875,.000103,0.0521,262.8357,224.6715,170.4843,0,U,39127,999,4117,0,-.67E-6,0
GAOFEN-1,2013-018A,2024-07-11T12:38:34.117728,14.76459285,.0020442,97.9885,265.6332,24.1260,336.0902,0,U,39150,999,60411,.18713E-3,.1255E-4,0
NEE-01 PEGASO,2013-018B,2024-07-11T12:32:23.595648,14.85999211,.0013923,98.0392,310.8782,323.9833,36.0442,0,U,39151,999,60558,.38223E-3,.3289E-4,0
COSMOS 2485 [GLONASS-M],2013-019A,2024-07-11T03:31:29.853120,2.13101987,.0022498,65.0524,97.3681,233.2943,126.5415,0,U,39155,999,8723,0,-.16E-6,0
ZHONGXING-11,2013-020A,2024-07-11T13:50:16.016928,1.00273203,.0001962,0.0173,82.6294,251.5727,261.2397,0,U,39157,999,4082,0,-.284E-5,0
PROBA-V,2013-021A,2024-07-11T14:38:16.427904,14.23279444,.0005117,98.3062,198.7639,51.2375,308.9261,0,U,39159,999,58073,.75485E-4,.13E-5,0
VNREDSAT 1,2013-021B,2024-07-11T14:17:23.757504,14.63649747,.0001325,97.9960,259.7048,106.4399,253.6949,0,U,39160,999,59700,.19833E-3,.985E-5,0
ESTCUBE 1,2013-021C,2024-07-11T11:12:35.032896,14.76562043,.0009946,97.8271,259.1931,145.1670,215.0193,0,U,39161,999,60067,.3752E-3,.257E-4,0
EUTELSAT 7B,2013-022A,2024-07-11T13:24:03.814272,1.00272177,.0003787,0.0647,4.5140,34.1960,99.2354,0,U,39163,999,4089,0,.55E-6,0
NAVSTAR 68 (USA 242),2013-023A,2024-07-10T04:43:16.960512,2.00562815,.0123787,55.0921,297.6554,45.0208,316.0076,0,U,39166,999,8169,0,-.69E-6,0
WGS F5 (USA 243),2013-024A,2024-07-11T11:23:38.604768,1.00272223,.0000203,0.0185,55.4752,143.5880,209.2050,0,U,39168,999,4008,0,-.277E-5,0
SES-6,2013-026A,2024-07-11T11:27:31.686912,1.00271945,.0001777,0.0192,350.8512,102.5741,327.8064,0,U,39172,999,4064,0,-.254E-5,0
COSMOS 2486,2013-028A,2024-07-11T14:20:50.199072,14.55406112,.0012288,97.9261,181.6797,59.5505,300.6906,0,U,39177,999,58871,.95224E-4,.372E-5,0
O3B FM5,2013-031A,2024-07-10T20:44:53.089440,5.00115127,.000262,0.0634,11.8035,94.3883,253.8345,0,U,39188,999,20169,0,-.23E-6,0
O3B FM4,2013-031B,2024-07-11T07:40:27.877440,5.00115064,.0002638,0.0496,347.0125,118.3263,254.6881,0,U,39189,999,20174,0,-.22E-6,0
O3B FM2,2013-031C,2024-07-10T14:41:28.894272,5.00115602,.0002558,0.0495,341.2374,125.3441,253.4439,0,U,39190,999,20176,0,-.23E-6,0
O3B PFM,2013-031D,2024-07-10T15:18:04.896288,5.00116211,.000262,0.0567,6.1696,103.4852,250.3708,0,U,39191,999,20132,0,-.23E-6,0
IRIS,2013-033A,2024-07-11T12:54:15.636672,14.82138764,.0027391,97.9640,24.0491,101.4606,258.9685,0,U,39197,999,59569,.23046E-3,.1792E-4,0
IRNSS-1A,2013-034A,2024-07-08T18:01:42.594816,1.00278951,.0017845,34.1242,74.1351,181.0211,357.5289,0,U,39199,999,4026,0,.59E-6,0
SJ-11-05,2013-035A,2024-07-11T13:35:59.803296,14.62818048,.0009611,98.2533,4.3353,287.1625,72.8524,0,U,39202,999,58598,.19086E-3,.926E-5,0
MUOS-2,2013-036A,2024-07-11T11:40:42.618432,1.00273148,.0052373,3.6661,40.9118,176.3873,70.7084,0,U,39206,999,4011,0,.71E-6,0
SHIYAN 7 (SY-7),2013-037A,2024-07-11T13:19:59.302272,14.70260218,.0006992,98.0642,190.9652,228.1029,131.9582,0,U,39208,999,58843,.17262E-3,.992E-5,0
CHUANGXIN-3 (CX-3),2013-037B,2024-07-11T14:04:24.196224,14.71385611,.0003427,98.0650,192.1676,210.4354,149.6655,0,U,39209,999,58845,.26867E-3,.1613E-4,0
SHIJIAN-15 (SJ-15),2013-037C,2024-07-11T13:38:25.089216,14.69450995,.00053,98.0786,190.3197,222.8918,137.1875,0,U,39210,999,59061,.19492E-3,.1105E-4,0
ALPHASAT,2013-038A,2024-07-11T13:29:19.601952,1.00270240,.0002171,2.8939,7.2751,124.2206,25.6549,0,U,39215,999,3694,0,.14E-5,0
INSAT-3D,2013-038B,2024-07-11T13:50:38.573376,1.00569339,.0000867,0.0968,96.6722,77.6355,62.6159,0,U,39216,999,4000,0,-.328E-5,0
