NEOSSAT                 
1 39089U 13009D   24193.51477393  .00000275  00000+0  11121-3 0  9992
2 39089  98.4048  20.2397 0011012 183.8272 176.2831 14.35197568595492
STRAND-1                
1 39090U 13009E   24193.52325152  .00000477  00000+0  17820-3 0  9996
2 39090  98.3814  21.1391 0008959 172.3372 187.7953 14.36117474595736
BRITE-AUSTRIA           
1 39091U 13009F   24193.50394621  .00000312  00000+0  12227-3 0  9996
2 39091  98.3859  20.3929 0010295 180.6631 179.4543 14.35836730595757
SBIRS GEO-2 (USA 241)   
1 39120U 13011A   24193.47797221 -.00000251  00000+0  00000+0 0  9996
2 39120   3.0261  47.6130 0001663  63.7711 312.5457  1.00271439 41460
EUTELSAT 117 WEST A     
1 39122U 13012A   24193.53383709 -.00000005  00000+0  00000+0 0  9995
2 39122   0.0174  54.1959 0002797  62.3293 248.7712  1.00271821 41350
ANIK G1                 
1 39127U 13014A   24193.32109295 -.00000067  00000+0  00000+0 0  9993
2 39127   0.0521 262.8357 0001030 224.6715 170.4843  1.00272875 41178
GAOFEN-1                
1 39150U 13018A   24193.52678377  .00001255  00000+0  18713-3 0  9990
2 39150  97.9885 265.6332 0020442  24.1260 336.0902 14.76459285604116
NEE-01 PEGASO           
1 39151U 13018B   24193.52249532  .00003289  00000+0  38223-3 0  9995
2 39151  98.0392 310.8782 0013923 323.9833  36.0442 14.85999211605582
COSMOS 2485 [GLONASS-M] 
1 39155U 13019A   24193.14687330 -.00000016  00000+0  00000+0 0  9994
2 39155  65.0524  97.3681 0022498 233.2943 126.5415  2.13101987 87238
ZHONGXING-11            
1 39157U 13020A   24193.57657427 -.00000284  00000+0  00000+0 0  9996
2 39157   0.0173  82.6294 0001962 251.5727 261.2397  1.00273203 40828
PROBA-V                 
1 39159U 13021A   24193.60991236  .00000130  00000+0  75485-4 0  9995
2 39159  98.3062 198.7639 0005117  51.2375 308.9261 14.23279444580739
VNREDSAT 1              
1 39160U 13021B   24193.59541386  .00000985  00000+0  19833-3 0  9994
2 39160  97.9960 259.7048 0001325 106.4399 253.6949 14.63649747597009
ESTCUBE 1               
1 39161U 13021C   24193.46707214  .00002570  00000+0  37520-3 0  9990
2 39161  97.8271 259.1931 0009946 145.1670 215.0193 14.76562043600676
EUTELSAT 7B             
1 39163U 13022A   24193.55837748  .00000055  00000+0  00000+0 0  9994
2 39163   0.0647   4.5140 0003787  34.1960  99.2354  1.00272177 40893
NAVSTAR 68 (USA 242)    
1 39166U 13023A   24192.19672408 -.00000069  00000+0  00000+0 0  9993
2 39166  55.0921 297.6554 0123787  45.0208 316.0076  2.00562815 81690
WGS F5 (USA 243)        
1 39168U 13024A   24193.47475237 -.00000277  00000+0  00000+0 0  9990
2 39168   0.0185  55.4752 0000203 143.5880 209.2050  1.00272223 40084
SES-6                   
1 39172U 13026A   24193.47745008 -.00000254  00000+0  00000+0 0  9998
2 39172   0.0192 350.8512 0001777 102.5741 327.8064  1.00271945 40645
COSMOS 2486             
1 39177U 13028A   24193.59780323  .00000372  00000+0  95224-4 0  9994
2 39177  97.9261 181.6797 0012288  59.5505 300.6906 14.55406112588714
O3B FM5                 
1 39188U 13031A   24192.86450335 -.00000023  00000+0  00000+0 0  9993
2 39188   0.0634  11.8035 0002620  94.3883 253.8345  5.00115127201697
O3B FM4                 
1 39189U 13031B   24193.31976710 -.00000022  00000+0  00000+0 0  9994
2 39189   0.0496 347.0125 0002638 118.3263 254.6881  5.00115064201746
O3B FM2                 
1 39190U 13031C   24192.61213998 -.00000023  00000+0  00000+0 0  9991
2 39190   0.0495 341.2374 0002558 125.3441 253.4439  5.00115602201762
O3B PFM                 
1 39191U 13031D   24192.63755667 -.00000023  00000+0  00000+0 0  9998
2 39191   0.0567   6.1696 0002620 103.4852 250.3708  5.00116211201324
IRIS                    
1 39197U 13033A   24193.53768098  .00001792  00000+0  23046-3 0  9990
2 39197  97.9640  24.0491 0027391 101.4606 258.9685 14.82138764595697
IRNSS-1A                
1 39199U 13034A   24190.75118744  .00000059  00000+0  00000+0 0  9997
2 39199  34.1242  74.1351 0017845 181.0211 357.5289  1.00278951 40263
SJ-11-05                
1 39202U 13035A   24193.56666439  .00000926  00000+0  19086-3 0  9995
2 39202  98.2533   4.3353 0009611 287.1625  72.8524 14.62818048585989
MUOS-2                  
1 39206U 13036A   24193.48660438  .00000071  00000+0  00000+0 0  9997
2 39206   3.6661  40.9118 0052373 176.3873  70.7084  1.00273148 40110
SHIYAN 7 (SY-7)         
1 39208U 13037A   24193.55554748  .00000992  00000+0  17262-3 0  9998
2 39208  98.0642 190.9652 0006992 228.1029 131.9582 14.70260218588433
CHUANGXIN-3 (CX-3)      
1 39209U 13037B   24193.58639116  .00001613  00000+0  26867-3 0  9997
2 39209  98.0650 192.1676 0003427 210.4354 149.6655 14.71385611588453
SHIJIAN-15 (SJ-15)      
1 39210U 13037C   24193.56834594  .00001105  00000+0  19492-3 0  9996
2 39210  98.0786 190.3197 0005300 222.8918 137.1875 14.69450995590610
ALPHASAT                
1 39215U 13038A   24193.56203243  .00000140  00000+0  00000+0 0  9992
2 39215   2.8939   7.2751 0002171 124.2206  25.6549  1.00270240 36942
INSAT-3D                
1 39216U 13038B   24193.57683534 -.00000328  00000+0  00000+0 0  9998
2 39216   0.0968  96.6722 0000867  77.6355  62.6159  1.00569339 40001
